{
  "norad_id": 38740,
  "name": "INTELSAT 20 (IS-20)",
  "history": [
    {
      "epoch": "2026-04-19T15:54:12.915072Z",
      "apogee_km": 35796.55558619748,
      "perigee_km": 35777.38732789291,
      "latitude_deg": -0.012759266727098338,
      "longitude_deg": 68.47921025156732,
      "height_km": 35777.25724041535,
      "semi_major_axis_km": 42165.1084570452,
      "eccentricity": 0.0002273,
      "inclination_deg": 0.0209,
      "raan_deg": 142.5869,
      "arg_perigee_deg": 28.2246,
      "mean_anomaly_deg": 343.9987,
      "mean_motion_rev_day": 1.00270442
    },
    {
      "epoch": "2026-04-20T05:16:38.697312Z",
      "apogee_km": 35793.012905210606,
      "perigee_km": 35781.01523312538,
      "latitude_deg": 0.03104498639291675,
      "longitude_deg": 68.51070463626858,
      "height_km": 35781.662374527776,
      "semi_major_axis_km": 42165.151069167994,
      "eccentricity": 0.00014227,
      "inclination_deg": 0.0192,
      "raan_deg": 301.0814,
      "arg_perigee_deg": 18.8058,
      "mean_anomaly_deg": 36.0926,
      "mean_motion_rev_day": 1.0027029
    },
    {
      "epoch": "2026-04-21T08:58:18.709824Z",
      "apogee_km": 35795.9481936942,
      "perigee_km": 35777.716061043524,
      "latitude_deg": -0.006160499444601293,
      "longitude_deg": 68.47336662832981,
      "height_km": 35791.17551508051,
      "semi_major_axis_km": 42164.969127368866,
      "eccentricity": 0.0002162,
      "inclination_deg": 0.0151,
      "raan_deg": 160.7483,
      "arg_perigee_deg": 13.635,
      "mean_anomaly_deg": 238.1396,
      "mean_motion_rev_day": 1.00270939
    },
    {
      "epoch": "2026-04-22T18:41:38.751072Z",
      "apogee_km": 35794.49933497343,
      "perigee_km": 35775.89687152587,
      "latitude_deg": -0.010936940790250847,
      "longitude_deg": 68.51450233296698,
      "height_km": 35775.773660782725,
      "semi_major_axis_km": 42163.33510324965,
      "eccentricity": 0.0002206,
      "inclination_deg": 0.01,
      "raan_deg": 210.9217,
      "arg_perigee_deg": 331.7179,
      "mean_anomaly_deg": 17.1095,
      "mean_motion_rev_day": 1.00276768
    },
    {
      "epoch": "2026-04-23T04:45:38.663424Z",
      "apogee_km": 35794.98679701392,
      "perigee_km": 35776.4768585985,
      "latitude_deg": 0.012261292102376345,
      "longitude_deg": 68.50778929304487,
      "height_km": 35794.478794871255,
      "semi_major_axis_km": 42163.86882780621,
      "eccentricity": 0.0002195,
      "inclination_deg": 0.0112,
      "raan_deg": 180.1106,
      "arg_perigee_deg": 350.5107,
      "mean_anomaly_deg": 180.5404,
      "mean_motion_rev_day": 1.00274864
    },
    {
      "epoch": "2026-04-24T17:57:04.943232Z",
      "apogee_km": 35795.52954801047,
      "perigee_km": 35777.98051994592,
      "latitude_deg": -0.01572037314024405,
      "longitude_deg": 68.51632991381939,
      "height_km": 35777.70635276156,
      "semi_major_axis_km": 42164.8920339782,
      "eccentricity": 0.0002081,
      "inclination_deg": 0.0105,
      "raan_deg": 216.9936,
      "arg_perigee_deg": 319.7624,
      "mean_anomaly_deg": 13.7927,
      "mean_motion_rev_day": 1.00271214
    },
    {
      "epoch": "2026-04-25T08:48:05.027040Z",
      "apogee_km": 35795.74097530408,
      "perigee_km": 35777.73657334843,
      "latitude_deg": -0.009805032016282113,
      "longitude_deg": 68.48933226244642,
      "height_km": 35791.09897616417,
      "semi_major_axis_km": 42164.875774326254,
      "eccentricity": 0.0002135,
      "inclination_deg": 0.011,
      "raan_deg": 173.238,
      "arg_perigee_deg": 3.139,
      "mean_anomaly_deg": 237.531,
      "mean_motion_rev_day": 1.00271272
    },
    {
      "epoch": "2026-04-26T15:36:13.804992Z",
      "apogee_km": 35795.35554186999,
      "perigee_km": 35778.495419986364,
      "latitude_deg": -0.011550290118305604,
      "longitude_deg": 68.48259809284549,
      "height_km": 35778.52203843942,
      "semi_major_axis_km": 42165.06248092818,
      "eccentricity": 0.00019993,
      "inclination_deg": 0.0197,
      "raan_deg": 146.3833,
      "arg_perigee_deg": 31.3923,
      "mean_anomaly_deg": 339.4161,
      "mean_motion_rev_day": 1.00270606
    },
    {
      "epoch": "2026-04-27T13:51:05.023872Z",
      "apogee_km": 35790.72599191064,
      "perigee_km": 35775.00836955205,
      "latitude_deg": -0.02015000797451645,
      "longitude_deg": 68.47496013790501,
      "height_km": 35779.28077617937,
      "semi_major_axis_km": 42161.00418073135,
      "eccentricity": 0.0001864,
      "inclination_deg": 0.0169,
      "raan_deg": 159.9104,
      "arg_perigee_deg": 38.8389,
      "mean_anomaly_deg": 293.0754,
      "mean_motion_rev_day": 1.00285084
    },
    {
      "epoch": "2026-04-28T08:40:18.829056Z",
      "apogee_km": 35794.832864121774,
      "perigee_km": 35777.43588575247,
      "latitude_deg": -0.01196129335830256,
      "longitude_deg": 68.4747813265958,
      "height_km": 35790.07206472026,
      "semi_major_axis_km": 42164.271374937125,
      "eccentricity": 0.0002063,
      "inclination_deg": 0.0197,
      "raan_deg": 153.8525,
      "arg_perigee_deg": 21.4662,
      "mean_anomaly_deg": 239.5889,
      "mean_motion_rev_day": 1.00273428
    },
    {
      "epoch": "2026-04-29T20:36:31.488192Z",
      "apogee_km": 35791.827135625055,
      "perigee_km": 35781.72442252319,
      "latitude_deg": -0.009793196141218248,
      "longitude_deg": 68.47048945228602,
      "height_km": 35787.68284084336,
      "semi_major_axis_km": 42164.912779074126,
      "eccentricity": 0.0001198,
      "inclination_deg": 0.018,
      "raan_deg": 347.0893,
      "arg_perigee_deg": 354.3403,
      "mean_anomaly_deg": 253.9991,
      "mean_motion_rev_day": 1.0027114
    },
    {
      "epoch": "2026-04-30T12:00:43.026336Z",
      "apogee_km": 35793.315790038956,
      "perigee_km": 35777.751492658404,
      "latitude_deg": 0.0008301395133979881,
      "longitude_deg": 68.49197677668967,
      "height_km": 35787.18170955619,
      "semi_major_axis_km": 42163.67064134868,
      "eccentricity": 0.00018457,
      "inclination_deg": 0.0183,
      "raan_deg": 330.1463,
      "arg_perigee_deg": 242.9518,
      "mean_anomaly_deg": 254.0416,
      "mean_motion_rev_day": 1.00275571
    },
    {
      "epoch": "2026-05-02T10:12:54.589248Z",
      "apogee_km": 35795.128002523394,
      "perigee_km": 35778.042856994856,
      "latitude_deg": -0.007044530778635561,
      "longitude_deg": 68.48502156616621,
      "height_km": 35787.40604210628,
      "semi_major_axis_km": 42164.72242975913,
      "eccentricity": 0.0002026,
      "inclination_deg": 0.0074,
      "raan_deg": 235.6873,
      "arg_perigee_deg": 305.0153,
      "mean_anomaly_deg": 261.3818,
      "mean_motion_rev_day": 1.00271819
    },
    {
      "epoch": "2026-05-03T14:35:29.737248Z",
      "apogee_km": 35795.28473633435,
      "perigee_km": 35779.10168259996,
      "latitude_deg": -0.02093910994490626,
      "longitude_deg": 68.48308215434982,
      "height_km": 35779.8376383158,
      "semi_major_axis_km": 42165.33020946716,
      "eccentricity": 0.0001919,
      "inclination_deg": 0.0041,
      "raan_deg": 224.9655,
      "arg_perigee_deg": 315.8083,
      "mean_anomaly_deg": 328.1103,
      "mean_motion_rev_day": 1.00269651
    },
    {
      "epoch": "2026-05-04T05:31:38.464320Z",
      "apogee_km": 35790.494268195645,
      "perigee_km": 35780.51919336181,
      "latitude_deg": 0.032069190674731886,
      "longitude_deg": 68.50791100247775,
      "height_km": 35784.77957648074,
      "semi_major_axis_km": 42163.64373077873,
      "eccentricity": 0.00011829,
      "inclination_deg": 0.0098,
      "raan_deg": 266.512,
      "arg_perigee_deg": 194.845,
      "mean_anomaly_deg": 272.2038,
      "mean_motion_rev_day": 1.00275667
    },
    {
      "epoch": "2026-05-05T05:34:38.476128Z",
      "apogee_km": 35794.48513978008,
      "perigee_km": 35778.90101858282,
      "latitude_deg": 0.020201505037186054,
      "longitude_deg": 68.48920069879215,
      "height_km": 35793.77183864675,
      "semi_major_axis_km": 42164.830079181454,
      "eccentricity": 0.0001848,
      "inclination_deg": 0.006,
      "raan_deg": 236.9516,
      "arg_perigee_deg": 304.9809,
      "mean_anomaly_deg": 193.3388,
      "mean_motion_rev_day": 1.00271435
    },
    {
      "epoch": "2026-05-06T20:18:33.280128Z",
      "apogee_km": 35794.03564037253,
      "perigee_km": 35778.704625578976,
      "latitude_deg": -0.009865110709371905,
      "longitude_deg": 68.50933589988365,
      "height_km": 35781.22405133597,
      "semi_major_axis_km": 42164.507132975756,
      "eccentricity": 0.0001818,
      "inclination_deg": 0.0069,
      "raan_deg": 248.2304,
      "arg_perigee_deg": 296.5729,
      "mean_anomaly_deg": 53.036,
      "mean_motion_rev_day": 1.00272587
    },
    {
      "epoch": "2026-05-07T20:15:38.773728Z",
      "apogee_km": 35794.04584115572,
      "perigee_km": 35778.63050903171,
      "latitude_deg": -0.009724676738752245,
      "longitude_deg": 68.51029838980966,
      "height_km": 35780.922245526956,
      "semi_major_axis_km": 42164.47517509372,
      "eccentricity": 0.0001828,
      "inclination_deg": 0.0073,
      "raan_deg": 249.9636,
      "arg_perigee_deg": 297.4126,
      "mean_anomaly_deg": 50.7214,
      "mean_motion_rev_day": 1.00272701
    },
    {
      "epoch": "2026-05-08T15:05:16.046016Z",
      "apogee_km": 35793.76844887172,
      "perigee_km": 35779.972058498315,
      "latitude_deg": -0.022924066605265542,
      "longitude_deg": 68.4839529192877,
      "height_km": 35780.05969884468,
      "semi_major_axis_km": 42165.00725368502,
      "eccentricity": 0.0001636,
      "inclination_deg": 0.0072,
      "raan_deg": 251.7379,
      "arg_perigee_deg": 293.2783,
      "mean_anomaly_deg": 336.2579,
      "mean_motion_rev_day": 1.00270803
    }
  ]
}